GPS BIIR-5  (PRN 22)    
1 26407U 00040A   26164.30270897  .00000084  00000+0  00000+0 0  9998
2 26407  54.8518 215.3166 0121064 302.4572  56.6362  2.00557597189874
GPS BIIR-8  (PRN 16)    
1 27663U 03005A   26164.12019419  .00000085  00000+0  00000+0 0  9999
2 27663  54.8828 215.1306 0147934  53.0735 310.1871  2.00560725171232
GPS BIIR-11 (PRN 19)    
1 28190U 04009A   26164.41643829 -.00000032  00000+0  00000+0 0  9993
2 28190  54.8330 275.8397 0115994 172.9053 197.4791  2.00554756162878
GPS BIIR-13 (PRN 02)    
1 28474U 04045A   26164.33708674 -.00000074  00000+0  00000+0 0  9995
2 28474  55.1372 325.0509 0169805 316.2769  61.7561  2.00555605158353
GPS BIIRM-1 (PRN 17)    
1 28874U 05038A   26164.36882667 -.00000028  00000+0  00000+0 0  9999
2 28874  54.8812 273.3317 0127831 296.1247  68.3770  2.00565849151768
GPS BIIRM-2 (PRN 31)    
1 29486U 06042A   26164.14534884  .00000083  00000+0  00000+0 0  9996
2 29486  54.7102 151.4994 0106542  54.3122  47.2287  2.00570029144316
GPS BIIRM-3 (PRN 12)    
1 29601U 06052A   26163.93110592  .00000087  00000+0  00000+0 0  9992
2 29601  54.9353 214.1750 0085171  90.8136 270.2532  2.00557944143328
GPS BIIRM-4 (PRN 15)    
1 32260U 07047A   26164.23601785 -.00000040  00000+0  00000+0 0  9995
2 32260  54.0924  80.2285 0166626  87.3036 274.5961  2.00555341136737
GPS BIIRM-5 (PRN 29)    
1 32384U 07062A   26164.54248002 -.00000029  00000+0  00000+0 0  9999
2 32384  55.0347 274.2993 0035667 165.1238 183.4313  2.00559837135433
GPS BIIRM-6 (PRN 07)    
1 32711U 08012A   26164.14771647  .00000080  00000+0  00000+0 0  9997
2 32711  54.4968 150.0860 0211213 247.7974 109.9434  2.00572264133670
GPS BIIRM-8 (PRN 05)    
1 35752U 09043A   26163.38378272 -.00000064  00000+0  00000+0 0  9995
2 35752  56.2072  27.6401 0053783  83.0708  95.4600  2.00554404123260
GPS BIIF-1  (PRN 25)    
1 36585U 10022A   26163.97037535  .00000093  00000+0  00000+0 0  9999
2 36585  54.2705 208.7319 0126334  66.1291 294.4342  2.00562166117506
GPS BIIF-3  (PRN 24)    
1 38833U 12053A   26164.32767930  .00000066  00000+0  00000+0 0  9992
2 38833  53.5852 143.7574 0180063  65.6995 296.1518  2.00567351 99362
GPS BIIF-4  (PRN 27)    
1 39166U 13023A   26164.19452343 -.00000022  00000+0  00000+0 0  9997
2 39166  54.5073 269.1364 0141554  51.0317 310.2420  2.00563403 95806
GPS BIIF-5  (PRN 30)    
1 39533U 14008A   26164.19614774  .00000077  00000+0  00000+0 0  9996
2 39533  53.6540 149.4824 0084242 231.2219 128.0161  2.00559470 89604
GPS BIIF-6  (PRN 06)    
1 39741U 14026A   26163.97301804 -.00000070  00000+0  00000+0 0  9993
2 39741  56.5005 331.6815 0038205 326.6267  33.1328  2.00561184 88456
GPS BIIF-7  (PRN 09)    
1 40105U 14045A   26164.06472917 -.00000028  00000+0  00000+0 0  9998
2 40105  55.3506  88.6292 0033132 118.2949 242.0240  2.00558056 85993
GPS BIIF-8  (PRN 03)    
1 40294U 14068A   26163.93501465 -.00000061  00000+0  00000+0 0  9995
2 40294  56.9847  31.1185 0066962  70.4280 290.3526  2.00575830 85122
GPS BIIF-9  (PRN 26)    
1 40534U 15013A   26164.57224105  .00000093  00000+0  00000+0 0  9991
2 40534  53.1681 204.3272 0109430  40.1118 320.7798  2.00551527 81758
GPS BIIF-10 (PRN 08)    
1 40730U 15033A   26164.23226416 -.00000019  00000+0  00000+0 0  9990
2 40730  53.9855 267.2497 0115057  30.2220 330.4618  2.00556392 79919
GPS BIIF-11 (PRN 10)    
1 41019U 15062A   26164.28853581 -.00000062  00000+0  00000+0 0  9995
2 41019  56.9567  30.9614 0111821 231.1221 127.9314  2.00566966 77757
GPS BIIF-12 (PRN 32)    
1 41328U 16007A   26161.88615589 -.00000012  00000+0  00000+0 0  9990
2 41328  55.5202  89.7095 0096068 247.3778 111.5924  2.00551975 75711
GPS BIII-1  (PRN 04)    
1 43873U 18109A   26164.17864632 -.00000023  00000+0  00000+0 0  9994
2 43873  55.6795  92.3452 0038159 198.0597 271.3624  2.00561338 54994
GPS BIII-2  (PRN 18)    
1 44506U 19056A   26163.66035003 -.00000070  00000+0  00000+0 0  9997
2 44506  55.6395 331.3227 0061867 197.5828 161.1492  2.00569410 49973
GPS BIII-3  (PRN 23)    
1 45854U 20041A   26162.56161249 -.00000063  00000+0  00000+0 0  9992
2 45854  56.6657  29.1622 0063604 204.6361  19.3768  2.00558626 43922
GPS BIII-4  (PRN 14)    
1 46826U 20078A   26164.31236422  .00000089  00000+0  00000+0 0  9990
2 46826  53.9802 210.9360 0073434 207.1619 177.1494  2.00564726 41430
GPS BIII-5  (PRN 11)    
1 48859U 21054A   26163.98775440 -.00000073  00000+0  00000+0 0  9997
2 48859  55.1767 332.6286 0025310 228.5784 107.5596  2.00569035 36668
GPS BIII-6  (PRN 28)    
1 55268U 23009A   26163.12704838  .00000093  00000+0  00000+0 0  9991
2 55268  55.1221 148.7180 0006256 318.0841 154.7932  2.00571739 25144
GPS BIII-7  (PRN 01)    
1 62339U 24242A   26164.36763877 -.00000075  00000+0  00000+0 0  9994
2 62339  54.8503 334.3363 0017188   3.9293   7.0837  2.00571230 11182
GPS BIII-8  (PRN 21)    
1 64202U 25116A   26163.38956388 -.00000065  00000+0  00000+0 0  9997
2 64202  55.2312  31.3239 0008563 338.8161 228.7168  2.00576015  7778
GPS BIII-9  (PRN 20)    
1 67588U 26017A   26164.20879687 -.00000028  00000+0  00000+0 0  9995
2 67588  55.0859  88.9150 0022147 258.0590 101.6773  2.00571123431536
GPS BIII-10 (PRN 13)    
1 68791U 26087A   26158.43909353  .00000057  00000+0  00000+0 0  9992
2 68791  54.9638 208.1735 0020931 107.2972 251.8874  2.00569573   638
